<?xml version="1.0" encoding="UTF-8"?>
<ndm xmlns:xsi="http://www.w3.org/2001/XMLSchema-instance" xsi:noNamespaceSchemaLocation="https://sanaregistry.org/r/ndmxml_unqualified/ndmxml-2.0.0-master-2.0.xsd">
<omm id="CCSDS_OMM_VERS" version="2.0">
<header><CREATION_DATE/><ORIGINATOR/></header><body><segment><metadata><OBJECT_NAME>ORBCOMM FM33</OBJECT_NAME><OBJECT_ID>1999-065D</OBJECT_ID><CENTER_NAME>EARTH</CENTER_NAME><REF_FRAME>TEME</REF_FRAME><TIME_SYSTEM>UTC</TIME_SYSTEM><MEAN_ELEMENT_THEORY>SGP4</MEAN_ELEMENT_THEORY></metadata><data><meanElements><EPOCH>2024-09-07T10:48:22.306752</EPOCH><MEAN_MOTION>14.38289763</MEAN_MOTION><ECCENTRICITY>.0006665</ECCENTRICITY><INCLINATION>45.0275</INCLINATION><RA_OF_ASC_NODE>261.6449</RA_OF_ASC_NODE><ARG_OF_PERICENTER>67.4732</ARG_OF_PERICENTER><MEAN_ANOMALY>292.6822</MEAN_ANOMALY></meanElements><tleParameters><EPHEMERIS_TYPE>0</EPHEMERIS_TYPE><CLASSIFICATION_TYPE>U</CLASSIFICATION_TYPE><NORAD_CAT_ID>25983</NORAD_CAT_ID><ELEMENT_SET_NO>999</ELEMENT_SET_NO><REV_AT_EPOCH>29533</REV_AT_EPOCH><BSTAR>.15988E-2</BSTAR><MEAN_MOTION_DOT>.4771E-4</MEAN_MOTION_DOT><MEAN_MOTION_DDOT>0</MEAN_MOTION_DDOT></tleParameters></data></segment></body></omm>
<omm id="CCSDS_OMM_VERS" version="2.0">
<header><CREATION_DATE/><ORIGINATOR/></header><body><segment><metadata><OBJECT_NAME>ORBCOMM FM36</OBJECT_NAME><OBJECT_ID>1999-065E</OBJECT_ID><CENTER_NAME>EARTH</CENTER_NAME><REF_FRAME>TEME</REF_FRAME><TIME_SYSTEM>UTC</TIME_SYSTEM><MEAN_ELEMENT_THEORY>SGP4</MEAN_ELEMENT_THEORY></metadata><data><meanElements><EPOCH>2024-09-07T14:15:54.970272</EPOCH><MEAN_MOTION>14.36273507</MEAN_MOTION><ECCENTRICITY>.0004385</ECCENTRICITY><INCLINATION>45.0409</INCLINATION><RA_OF_ASC_NODE>348.4890</RA_OF_ASC_NODE><ARG_OF_PERICENTER>288.3208</ARG_OF_PERICENTER><MEAN_ANOMALY>71.7163</MEAN_ANOMALY></meanElements><tleParameters><EPHEMERIS_TYPE>0</EPHEMERIS_TYPE><CLASSIFICATION_TYPE>U</CLASSIFICATION_TYPE><NORAD_CAT_ID>25984</NORAD_CAT_ID><ELEMENT_SET_NO>999</ELEMENT_SET_NO><REV_AT_EPOCH>29376</REV_AT_EPOCH><BSTAR>.22068E-2</BSTAR><MEAN_MOTION_DOT>.6371E-4</MEAN_MOTION_DOT><MEAN_MOTION_DDOT>0</MEAN_MOTION_DDOT></tleParameters></data></segment></body></omm>
<omm id="CCSDS_OMM_VERS" version="2.0">
<header><CREATION_DATE/><ORIGINATOR/></header><body><segment><metadata><OBJECT_NAME>ORBCOMM FM35</OBJECT_NAME><OBJECT_ID>1999-065F</OBJECT_ID><CENTER_NAME>EARTH</CENTER_NAME><REF_FRAME>TEME</REF_FRAME><TIME_SYSTEM>UTC</TIME_SYSTEM><MEAN_ELEMENT_THEORY>SGP4</MEAN_ELEMENT_THEORY></metadata><data><meanElements><EPOCH>2024-09-07T12:56:08.909664</EPOCH><MEAN_MOTION>14.35660916</MEAN_MOTION><ECCENTRICITY>.0001346</ECCENTRICITY><INCLINATION>45.0409</INCLINATION><RA_OF_ASC_NODE>351.8595</RA_OF_ASC_NODE><ARG_OF_PERICENTER>71.0072</ARG_OF_PERICENTER><MEAN_ANOMALY>289.0922</MEAN_ANOMALY></meanElements><tleParameters><EPHEMERIS_TYPE>0</EPHEMERIS_TYPE><CLASSIFICATION_TYPE>U</CLASSIFICATION_TYPE><NORAD_CAT_ID>25985</NORAD_CAT_ID><ELEMENT_SET_NO>999</ELEMENT_SET_NO><REV_AT_EPOCH>29414</REV_AT_EPOCH><BSTAR>.17359E-2</BSTAR><MEAN_MOTION_DOT>.4917E-4</MEAN_MOTION_DOT><MEAN_MOTION_DDOT>0</MEAN_MOTION_DDOT></tleParameters></data></segment></body></omm>
<omm id="CCSDS_OMM_VERS" version="2.0">
<header><CREATION_DATE/><ORIGINATOR/></header><body><segment><metadata><OBJECT_NAME>ORBCOMM FM38</OBJECT_NAME><OBJECT_ID>2008-031A</OBJECT_ID><CENTER_NAME>EARTH</CENTER_NAME><REF_FRAME>TEME</REF_FRAME><TIME_SYSTEM>UTC</TIME_SYSTEM><MEAN_ELEMENT_THEORY>SGP4</MEAN_ELEMENT_THEORY></metadata><data><meanElements><EPOCH>2024-09-07T07:06:27.967392</EPOCH><MEAN_MOTION>14.78544036</MEAN_MOTION><ECCENTRICITY>.0005492</ECCENTRICITY><INCLINATION>48.4394</INCLINATION><RA_OF_ASC_NODE>220.9364</RA_OF_ASC_NODE><ARG_OF_PERICENTER>270.0124</ARG_OF_PERICENTER><MEAN_ANOMALY>90.0161</MEAN_ANOMALY></meanElements><tleParameters><EPHEMERIS_TYPE>0</EPHEMERIS_TYPE><CLASSIFICATION_TYPE>U</CLASSIFICATION_TYPE><NORAD_CAT_ID>33060</NORAD_CAT_ID><ELEMENT_SET_NO>999</ELEMENT_SET_NO><REV_AT_EPOCH>87284</REV_AT_EPOCH><BSTAR>.1187E-2</BSTAR><MEAN_MOTION_DOT>.8572E-4</MEAN_MOTION_DOT><MEAN_MOTION_DDOT>0</MEAN_MOTION_DDOT></tleParameters></data></segment></body></omm>
<omm id="CCSDS_OMM_VERS" version="2.0">
<header><CREATION_DATE/><ORIGINATOR/></header><body><segment><metadata><OBJECT_NAME>ORBCOMM FM41</OBJECT_NAME><OBJECT_ID>2008-031B</OBJECT_ID><CENTER_NAME>EARTH</CENTER_NAME><REF_FRAME>TEME</REF_FRAME><TIME_SYSTEM>UTC</TIME_SYSTEM><MEAN_ELEMENT_THEORY>SGP4</MEAN_ELEMENT_THEORY></metadata><data><meanElements><EPOCH>2024-09-07T11:00:58.603104</EPOCH><MEAN_MOTION>14.78260167</MEAN_MOTION><ECCENTRICITY>.0004606</ECCENTRICITY><INCLINATION>48.4426</INCLINATION><RA_OF_ASC_NODE>227.0721</RA_OF_ASC_NODE><ARG_OF_PERICENTER>257.6070</ARG_OF_PERICENTER><MEAN_ANOMALY>246.8584</MEAN_ANOMALY></meanElements><tleParameters><EPHEMERIS_TYPE>0</EPHEMERIS_TYPE><CLASSIFICATION_TYPE>U</CLASSIFICATION_TYPE><NORAD_CAT_ID>33061</NORAD_CAT_ID><ELEMENT_SET_NO>999</ELEMENT_SET_NO><REV_AT_EPOCH>87236</REV_AT_EPOCH><BSTAR>.11645E-2</BSTAR><MEAN_MOTION_DOT>.8348E-4</MEAN_MOTION_DOT><MEAN_MOTION_DDOT>0</MEAN_MOTION_DDOT></tleParameters></data></segment></body></omm>

</ndm>
