ORBCOMM FM33            
1 25983U 99065D   24251.45025818  .00004771  00000+0  15988-2 0  9994
2 25983  45.0275 261.6449 0006665  67.4732 292.6822 14.38289763295330
ORBCOMM FM36            
1 25984U 99065E   24251.59438623  .00006371  00000+0  22068-2 0  9997
2 25984  45.0409 348.4890 0004385 288.3208  71.7163 14.36273507293769
ORBCOMM FM35            
1 25985U 99065F   24251.53899201  .00004917  00000+0  17359-2 0  9996
2 25985  45.0409 351.8595 0001346  71.0072 289.0922 14.35660916294143
ORBCOMM FM38            
1 33060U 08031A   24251.29615703  .00008572  00000+0  11870-2 0  9991
2 33060  48.4394 220.9364 0005492 270.0124  90.0161 14.78544036872846
ORBCOMM FM41            
1 33061U 08031B   24251.45901161  .00008348  00000+0  11645-2 0  9997
2 33061  48.4426 227.0721 0004606 257.6070 246.8584 14.78260167872362
